{
  "norad_id": 68136,
  "name": "GUOWANG GROUP 20 OBJECT H",
  "history": [
    {
      "epoch": "2026-03-25T00:46:09.563232",
      "apogee_km": 900.6395570861287,
      "perigee_km": 879.5152187890262,
      "latitude_deg": -42.80612553314929,
      "longitude_deg": -11.322707519866526,
      "semi_major_axis_km": 7268.214387937577,
      "eccentricity": 0.0014532,
      "inclination_deg": 49.953,
      "raan_deg": 7.8688,
      "arg_perigee_deg": 103.7924,
      "mean_anomaly_deg": 256.4596,
      "mean_motion_rev_day": 14.01074305
    }
  ]
}